"{\n    \"CCSDS_OMM_VERS\": \"2.0\",\n    \"COMMENT\": \"GENERATED VIA SPACE-TRACK.ORG API\",\n    \"CREATION_DATE\": \"2025-06-22T17:23:19\",\n    \"ORIGINATOR\": \"18 SPCS\",\n    \"OBJECT_NAME\": \"GALILEO-FM4\",\n    \"OBJECT_ID\": \"2012-055B\",\n    \"CENTER_NAME\": \"EARTH\",\n    \"REF_FRAME\": \"TEME\",\n    \"TIME_SYSTEM\": \"UTC\",\n    \"MEAN_ELEMENT_THEORY\": \"SGP4\",\n    \"EPOCH\": \"2025-03-01T18:33:38.589120\",\n    \"MEAN_MOTION\": \"1.64591902\",\n    \"ECCENTRICITY\": \"0.0002939\",\n    \"INCLINATION\": \"55.5405\",\n    \"RA_OF_ASC_NODE\": \"115.2181\",\n    \"ARG_OF_PERICENTER\": \"278.1775\",\n    \"MEAN_ANOMALY\": \"81.8829\",\n    \"EPHEMERIS_TYPE\": \"0\",\n    \"CLASSIFICATION_TYPE\": \"U\",\n    \"NORAD_CAT_ID\": \"38858\",\n    \"ELEMENT_SET_NO\": \"999\",\n    \"REV_AT_EPOCH\": \"535\",\n    \"BSTAR\": \"0\",\n    \"MEAN_MOTION_DOT\": \"0.00000028\",\n    \"MEAN_MOTION_DDOT\": \"0\",\n    \"TLE_LINE0\": \"0 GALILEO-FM4\",\n    \"TLE_LINE1\": \"1 38858U 12055B   25060.77336330  .00000028  00000-0  00000-0 0  9990\",\n    \"TLE_LINE2\": \"2 38858  55.5405 115.2181 0002939 278.1775  81.8829  1.64591902  5353\",\n    \"SEMIMAJOR_AXIS\": \"30301.412\",\n    \"PERIOD\": \"874.891\",\n    \"APOAPSIS\": \"23932.183\",\n    \"PERIAPSIS\": \"23914.371\",\n    \"OBJECT_TYPE\": \"PAYLOAD\",\n    \"DECAYED\": \"0\"\n}"